{
  "norad_id": 63809,
  "name": "STARLINK-34095",
  "history": [
    {
      "epoch": "2026-04-15T07:55:30.249408Z",
      "apogee_km": 483.56895675372016,
      "perigee_km": 482.5279776946336,
      "latitude_deg": 2.0058787434977734e-05,
      "longitude_deg": 3.6617546940482923,
      "height_km": 482.8255065739346,
      "semi_major_axis_km": 6861.185467224177,
      "eccentricity": 7.586e-05,
      "inclination_deg": 43.0026,
      "raan_deg": 326.0316,
      "arg_perigee_deg": 269.9329,
      "mean_anomaly_deg": 90.1436,
      "mean_motion_rev_day": 15.2758021
    },
    {
      "epoch": "2026-04-16T15:18:37.960704Z",
      "apogee_km": 483.4619820272592,
      "perigee_km": 482.57552070418296,
      "latitude_deg": -6.0380717739356116e-05,
      "longitude_deg": -115.7952146064426,
      "height_km": 482.83175415102374,
      "semi_major_axis_km": 6861.155751365721,
      "eccentricity": 6.46e-05,
      "inclination_deg": 43.0029,
      "raan_deg": 318.6458,
      "arg_perigee_deg": 265.2579,
      "mean_anomaly_deg": 94.8198,
      "mean_motion_rev_day": 15.27590134
    },
    {
      "epoch": "2026-04-17T22:41:45.975264Z",
      "apogee_km": 484.1779400067153,
      "perigee_km": 481.9217073316204,
      "latitude_deg": -4.951221584791993e-05,
      "longitude_deg": 124.74734563061477,
      "height_km": 482.9070734905081,
      "semi_major_axis_km": 6861.186823669168,
      "eccentricity": 0.00016442,
      "inclination_deg": 43.003,
      "raan_deg": 311.2607,
      "arg_perigee_deg": 265.9322,
      "mean_anomaly_deg": 94.1341,
      "mean_motion_rev_day": 15.27579757
    },
    {
      "epoch": "2026-04-18T06:32:33.170496Z",
      "apogee_km": 483.9290470818669,
      "perigee_km": 482.1511788683529,
      "latitude_deg": 2.6847536313348812e-05,
      "longitude_deg": 4.881738349351468,
      "height_km": 482.8856896337251,
      "semi_major_axis_km": 6861.17711297511,
      "eccentricity": 0.00012956,
      "inclination_deg": 43.0011,
      "raan_deg": 309.4139,
      "arg_perigee_deg": 265.5575,
      "mean_anomaly_deg": 94.5129,
      "mean_motion_rev_day": 15.27583
    },
    {
      "epoch": "2026-04-19T12:21:30.152448Z",
      "apogee_km": 484.00515091501256,
      "perigee_km": 481.876295719022,
      "latitude_deg": 6.3304585015496e-06,
      "longitude_deg": -90.5965015426614,
      "height_km": 482.73863340175285,
      "semi_major_axis_km": 6861.077723317017,
      "eccentricity": 0.00015514,
      "inclination_deg": 43.0024,
      "raan_deg": 302.3976,
      "arg_perigee_deg": 268.879,
      "mean_anomaly_deg": 91.1884,
      "mean_motion_rev_day": 15.27616193
    },
    {
      "epoch": "2026-04-20T11:53:51.502272Z",
      "apogee_km": 483.41409650567675,
      "perigee_km": 482.63562908072345,
      "latitude_deg": 1.4059015600682501e-05,
      "longitude_deg": -90.19047581976552,
      "height_km": 482.4896321621469,
      "semi_major_axis_km": 6861.161862793199,
      "eccentricity": 5.673e-05,
      "inclination_deg": 42.9973,
      "raan_deg": 296.8593,
      "arg_perigee_deg": 37.2037,
      "mean_anomaly_deg": 322.8854,
      "mean_motion_rev_day": 15.27588093
    },
    {
      "epoch": "2026-04-21T20:51:09.357984Z",
      "apogee_km": 483.87636654583457,
      "perigee_km": 482.15833349658806,
      "latitude_deg": -2.4654282635973095e-05,
      "longitude_deg": 126.37606859277666,
      "height_km": 482.74873767471,
      "semi_major_axis_km": 6861.154350021211,
      "eccentricity": 0.0001252,
      "inclination_deg": 43.0023,
      "raan_deg": 289.1037,
      "arg_perigee_deg": 273.0331,
      "mean_anomaly_deg": 87.0377,
      "mean_motion_rev_day": 15.27590602
    },
    {
      "epoch": "2026-04-22T18:49:20.469216Z",
      "apogee_km": 483.18429945475054,
      "perigee_km": 482.7726325267913,
      "latitude_deg": -6.016652974632274e-05,
      "longitude_deg": 150.7547659749464,
      "height_km": 482.55072579180296,
      "semi_major_axis_km": 6861.115465990771,
      "eccentricity": 3e-05,
      "inclination_deg": 43.0023,
      "raan_deg": 283.931,
      "arg_perigee_deg": 8.8341,
      "mean_anomaly_deg": 351.2515,
      "mean_motion_rev_day": 15.27603588
    },
    {
      "epoch": "2026-04-22T20:23:29.785920Z",
      "apogee_km": 484.04811427965615,
      "perigee_km": 481.9595830053295,
      "latitude_deg": -2.4785757232291804e-05,
      "longitude_deg": 126.78493694989106,
      "height_km": 482.48573160672856,
      "semi_major_axis_km": 6861.1408486424925,
      "eccentricity": 0.0001522,
      "inclination_deg": 43.0059,
      "raan_deg": 283.5644,
      "arg_perigee_deg": 286.4417,
      "mean_anomaly_deg": 73.6267,
      "mean_motion_rev_day": 15.27595111
    },
    {
      "epoch": "2026-04-24T19:28:11.047008Z",
      "apogee_km": 484.0927244731256,
      "perigee_km": 481.8848142005527,
      "latitude_deg": -1.6960283181468848e-05,
      "longitude_deg": 127.60369119838678,
      "height_km": 482.7650245188983,
      "semi_major_axis_km": 6861.125769336839,
      "eccentricity": 0.0001609,
      "inclination_deg": 43.0014,
      "raan_deg": 272.4885,
      "arg_perigee_deg": 270.0401,
      "mean_anomaly_deg": 90.0266,
      "mean_motion_rev_day": 15.27600147
    },
    {
      "epoch": "2026-04-25T17:26:22.420032Z",
      "apogee_km": 484.0346833223048,
      "perigee_km": 482.0092691925129,
      "latitude_deg": 6.0601394279785475e-05,
      "longitude_deg": 151.98331741281675,
      "height_km": 482.61915947571,
      "semi_major_axis_km": 6861.1589762574085,
      "eccentricity": 0.0001476,
      "inclination_deg": 43.0005,
      "raan_deg": 267.3177,
      "arg_perigee_deg": 280.2173,
      "mean_anomaly_deg": 79.8513,
      "mean_motion_rev_day": 15.27589057
    },
    {
      "epoch": "2026-04-26T18:32:52.702080Z",
      "apogee_km": 483.929829985841,
      "perigee_km": 482.03876773344837,
      "latitude_deg": -2.376074072600907e-05,
      "longitude_deg": 128.41728683437208,
      "height_km": 482.6750346509329,
      "semi_major_axis_km": 6861.121298859644,
      "eccentricity": 0.00013781,
      "inclination_deg": 43.0014,
      "raan_deg": 261.4091,
      "arg_perigee_deg": 275.2253,
      "mean_anomaly_deg": 84.8441,
      "mean_motion_rev_day": 15.2760164
    },
    {
      "epoch": "2026-04-27T16:31:04.394784Z",
      "apogee_km": 484.11147085110497,
      "perigee_km": 481.921390676006,
      "latitude_deg": -6.161654933505067e-06,
      "longitude_deg": 152.79521436025152,
      "height_km": 482.7237054632854,
      "semi_major_axis_km": 6861.153430763556,
      "eccentricity": 0.0001596,
      "inclination_deg": 43.0013,
      "raan_deg": 256.238,
      "arg_perigee_deg": 273.6514,
      "mean_anomaly_deg": 86.4155,
      "mean_motion_rev_day": 15.27590909
    },
    {
      "epoch": "2026-04-28T17:37:34.947264Z",
      "apogee_km": 484.0975588777019,
      "perigee_km": 481.95275958672573,
      "latitude_deg": -5.2368311773257877e-05,
      "longitude_deg": 129.22779494839676,
      "height_km": 482.542628721661,
      "semi_major_axis_km": 6861.1621592322135,
      "eccentricity": 0.0001563,
      "inclination_deg": 43.0002,
      "raan_deg": 250.3291,
      "arg_perigee_deg": 283.9975,
      "mean_anomaly_deg": 76.0702,
      "mean_motion_rev_day": 15.27587994
    },
    {
      "epoch": "2026-04-29T09:19:08.855616Z",
      "apogee_km": 483.9836604746779,
      "perigee_km": 482.0619868312697,
      "latitude_deg": 2.6073822902766615e-05,
      "longitude_deg": -110.50258434647328,
      "height_km": 482.59807509089734,
      "semi_major_axis_km": 6861.1598236529735,
      "eccentricity": 0.00014004,
      "inclination_deg": 42.9984,
      "raan_deg": 246.6344,
      "arg_perigee_deg": 282.0916,
      "mean_anomaly_deg": 77.9779,
      "mean_motion_rev_day": 15.27588774
    },
    {
      "epoch": "2026-04-30T08:51:29.411424Z",
      "apogee_km": 484.8768028255363,
      "perigee_km": 481.0848002389848,
      "latitude_deg": -7.69141449005648e-06,
      "longitude_deg": -110.09468373026607,
      "height_km": 482.48943114233134,
      "semi_major_axis_km": 6861.11780153226,
      "eccentricity": 0.00027634,
      "inclination_deg": 43.0007,
      "raan_deg": 241.0947,
      "arg_perigee_deg": 278.1617,
      "mean_anomaly_deg": 81.8921,
      "mean_motion_rev_day": 15.27602808
    },
    {
      "epoch": "2026-05-02T07:56:11.359392Z",
      "apogee_km": 483.49039023657497,
      "perigee_km": 482.6862546287848,
      "latitude_deg": 3.9829517491801046e-05,
      "longitude_deg": -109.27815647384897,
      "height_km": 482.76371763504324,
      "semi_major_axis_km": 6861.22532243268,
      "eccentricity": 5.86e-05,
      "inclination_deg": 42.9935,
      "raan_deg": 230.0194,
      "arg_perigee_deg": 284.3803,
      "mean_anomaly_deg": 75.6984,
      "mean_motion_rev_day": 15.275669
    },
    {
      "epoch": "2026-05-03T15:19:18.863328Z",
      "apogee_km": 484.0938365547281,
      "perigee_km": 481.82830197225667,
      "latitude_deg": -2.4842528373365646e-05,
      "longitude_deg": 131.26625142623288,
      "height_km": 482.62119238202223,
      "semi_major_axis_km": 6861.098069263492,
      "eccentricity": 0.0001651,
      "inclination_deg": 42.9978,
      "raan_deg": 222.6341,
      "arg_perigee_deg": 275.9054,
      "mean_anomaly_deg": 84.1609,
      "mean_motion_rev_day": 15.27609398
    },
    {
      "epoch": "2026-05-04T13:17:30.276096Z",
      "apogee_km": 483.61871887919096,
      "perigee_km": 482.3960629487301,
      "latitude_deg": 3.4572244949284096e-05,
      "longitude_deg": 155.64558938676214,
      "height_km": 482.69644997725607,
      "semi_major_axis_km": 6861.14439091396,
      "eccentricity": 8.91e-05,
      "inclination_deg": 42.9984,
      "raan_deg": 217.4632,
      "arg_perigee_deg": 278.184,
      "mean_anomaly_deg": 81.8911,
      "mean_motion_rev_day": 15.27593928
    }
  ]
}